STARLINK-32394          
1 61853U 24202J   26068.51193400 -.00000553  00000+0 -10569-4 0  9997
2 61853  43.0064 238.7215 0002321 285.2076  74.8519 15.27570555 75309
COSMOS 2588             
1 64095U 25109A   26068.81179522  .00009169  00000+0  32611-3 0  9998
2 64095  72.9704  73.5401 0005019 308.6780  51.3966 15.29122656 44425
